H1 CPF  1  DLR 2022 05 07 10  6272 technosat            
H2  1704205 6203    42829 2022 05 07 00 00 00 2022 05 14 00 00 00    60 1 1  0 0 0
H9
10 0 59708  21600.000000  0       6056266.821       3066340.500       1612266.918
10 0 59708  21660.000000  0       5989942.646       2932613.937       2045560.128
10 0 59708  21720.000000  0       5897181.776       2787237.929       2470179.762
10 0 59708  21780.000000  0       5778270.235       2631051.612       2884322.684
10 0 59708  21840.000000  0       5633612.692       2464937.271       3286229.701
10 0 59708  21900.000000  0       5463731.062       2289815.539       3674193.182
10 0 59708  21960.000000  0       5269262.565       2106640.462       4046564.465
10 0 59708  22020.000000  0       5050957.140       1916394.392       4401760.951
10 0 59708  22080.000000  0       4809674.478       1720082.793       4738272.714
10 0 59708  22140.000000  0       4546380.664       1518729.023       5054669.010
10 0 59708  22200.000000  0       4262144.128       1313369.062       5349604.530
10 0 59708  22260.000000  0       3958131.057       1105046.205       5621825.125
10 0 59708  22320.000000  0       3635600.355        894805.764       5870173.067
10 0 59708  22380.000000  0       3295898.234        683689.835       6093591.793
10 0 59708  22440.000000  0       2940452.498        472732.207       6291130.239
10 0 59708  22500.000000  0       2570766.504        262953.367       6461946.830
10 0 59708  22560.000000  0       2188412.718         55355.576       6605313.019
10 0 59708  22620.000000  0       1795025.989       -149081.904       6720616.351
10 0 59708  22680.000000  0       1392296.490       -349407.432       6807363.121
10 0 59708  22740.000000  0        981962.304       -544701.466       6865180.466
10 0 59708  22800.000000  0        565801.885       -734080.796       6893817.844
10 0 59708  22860.000000  0        145626.348       -916702.537       6893148.177
10 0 59708  22920.000000  0       -276728.475      -1091767.940       6863168.441
10 0 59708  22980.000000  0       -699410.065      -1258525.947       6803999.753
10 0 59708  23040.000000  0      -1120557.399      -1416276.479       6715886.942
10 0 59708  23100.000000  0      -1538309.160      -1564373.411       6599197.600
10 0 59708  23160.000000  0      -1950811.959      -1702227.243       6454420.680
10 0 59708  23220.000000  0      -2356228.570      -1829307.461       6282164.657
10 0 59708  23280.000000  0      -2752746.197      -1945144.663       6083155.299
10 0 59708  23340.000000  0      -3138584.845      -2049332.395       5858232.921
10 0 59708  23400.000000  0      -3512005.642      -2141528.671       5608348.945
10 0 59708  23460.000000  0      -3871318.852      -2221457.118       5334561.944
10 0 59708  23520.000000  0      -4214891.782      -2288907.797       5038033.329
10 0 59708  23580.000000  0      -4541156.527      -2343737.686       4720022.477
10 0 59708  23640.000000  0      -4848617.387      -2385870.756       4381881.397
10 0 59708  23700.000000  0      -5135858.008      -2415297.708       4025049.003
10 0 59708  23760.000000  0      -5401548.193      -2432075.365       3651045.003
10 0 59708  23820.000000  0      -5644450.378      -2436325.714       3261463.388
10 0 59708  23880.000000  0      -5863425.698      -2428234.623       2857965.567
10 0 59708  23940.000000  0      -6057439.633      -2408050.250       2442273.165
10 0 59708  24000.000000  0      -6225567.251      -2376081.146       2016160.488
10 0 59708  24060.000000  0      -6366997.913      -2332693.976       1581446.586
10 0 59708  24120.000000  0      -6481039.247      -2278310.877       1139987.100
10 0 59708  24180.000000  0      -6567120.572      -2213406.585        693666.098
10 0 59708  24240.000000  0      -6624795.852      -2138505.291        244387.731
10 0 59708  24300.000000  0      -6653746.017      -2054177.217       -205932.288
10 0 59708  24360.000000  0      -6653780.566      -1961034.948       -655375.253
10 0 59708  24420.000000  0      -6624838.497      -1859729.590      -1102027.970
10 0 59708  24480.000000  0      -6566988.636      -1750946.749      -1543991.209
10 0 59708  24540.000000  0      -6480429.301      -1635402.353      -1979388.043
10 0 59708  24600.000000  0      -6365487.334      -1513838.354      -2406372.028
10 0 59708  24660.000000  0      -6222616.517      -1387018.347      -2823135.190
10 0 59708  24720.000000  0      -6052395.392      -1255723.113      -3227915.805
10 0 59708  24780.000000  0      -5855524.483      -1120746.107      -3619005.881
10 0 59708  24840.000000  0      -5632822.970       -982888.956      -3994758.353
10 0 59708  24900.000000  0      -5385224.827       -842956.941      -4353593.938
10 0 59708  24960.000000  0      -5113774.434       -701754.527      -4694007.627
10 0 59708  25020.000000  0      -4819621.716       -560080.975      -5014574.774
10 0 59708  25080.000000  0      -4504016.844       -418726.072      -5313956.797
10 0 59708  25140.000000  0      -4168304.503       -278465.944      -5590906.445
10 0 59708  25200.000000  0      -3813917.809       -140059.012      -5844272.582
10 0 59708  25260.000000  0      -3442371.910         -4242.100      -6073004.546
10 0 59708  25320.000000  0      -3055257.311        128273.262      -6276156.045
10 0 59708  25380.000000  0      -2654232.963        256804.356      -6452888.634
10 0 59708  25440.000000  0      -2241019.069        380700.559      -6602474.810
10 0 59708  25500.000000  0      -1817389.657        499346.424      -6724300.581
10 0 59708  25560.000000  0      -1385165.044        612164.554      -6817867.598
10 0 59708  25620.000000  0       -946204.142        718618.285      -6882794.861
10 0 59708  25680.000000  0       -502396.636        818214.110      -6918819.942
10 0 59708  25740.000000  0        -55655.119        910503.828      -6925799.796
10 0 59708  25800.000000  0        392092.825        995086.425      -6903711.247
10 0 59708  25860.000000  0        838912.699       1071609.715      -6852651.131
10 0 59708  25920.000000  0       1282871.316       1139771.785      -6772835.890
10 0 59708  25980.000000  0       1722044.911       1199322.141      -6664600.597
10 0 59708  26040.000000  0       2154527.183       1250062.581      -6528397.708
10 0 59708  26100.000000  0       2578437.443       1291847.817      -6364795.342
10 0 59708  26160.000000  0       2991928.603       1324585.799      -6174475.017
10 0 59708  26220.000000  0       3393194.972       1348237.758      -5958229.059
10 0 59708  26280.000000  0       3780480.013       1362818.002      -5716957.673
10 0 59708  26340.000000  0       4152083.981       1368393.436      -5451665.541
10 0 59708  26400.000000  0       4506371.393       1365082.815      -5163458.035
10 0 59708  26460.000000  0       4841778.340       1353055.750      -4853536.949
10 0 59708  26520.000000  0       5156819.473       1332531.422      -4523195.780
10 0 59708  26580.000000  0       5450094.720       1303777.040      -4173814.681
10 0 59708  26640.000000  0       5720295.712       1267106.050      -3806855.000
10 0 59708  26700.000000  0       5966211.835       1222876.075      -3423853.455
10 0 59708  26760.000000  0       6186735.943       1171486.632      -3026415.992
10 0 59708  26820.000000  0       6380869.697       1113376.625      -2616211.251
10 0 59708  26880.000000  0       6547728.433       1049021.619      -2194963.683
10 0 59708  26940.000000  0       6686545.529        978930.915      -1764446.365
10 0 59708  27000.000000  0       6796676.244        903644.392      -1326473.555
10 0 59708  27060.000000  0       6877600.999        823729.190       -882893.037
10 0 59708  27120.000000  0       6928928.098        739776.249       -435578.243
10 0 59708  27180.000000  0       6950395.801        652396.747         13579.738
10 0 59708  27240.000000  0       6941873.884        562218.434        462680.209
10 0 59708  27300.000000  0       6903364.625        469881.808        909821.095
10 0 59708  27360.000000  0       6835003.075        376036.201       1353107.166
10 0 59708  27420.000000  0       6737056.761        281335.879       1790658.314
10 0 59708  27480.000000  0       6609924.614        186436.099       2220617.796
10 0 59708  27540.000000  0       6454135.287         91989.191       2641160.238
10 0 59708  27600.000000  0       6270344.989         -1359.380       3050499.566
10 0 59708  27660.000000  0       6059334.582        -92974.937       3446896.833
10 0 59708  27720.000000  0       5822005.989       -182237.333       3828667.661
10 0 59708  27780.000000  0       5559378.321       -268544.546       4194189.413
10 0 59708  27840.000000  0       5272583.393       -351316.300       4541908.314
10 0 59708  27900.000000  0       4962860.587       -429997.558       4870346.114
10 0 59708  27960.000000  0       4631551.260       -504061.785       5178106.433
10 0 59708  28020.000000  0       4280092.614       -573014.039       5463880.629
10 0 59708  28080.000000  0       3910011.334       -636393.841       5726453.244
10 0 59708  28140.000000  0       3522916.809       -693777.857       5964707.198
10 0 59708  28200.000000  0       3120493.919       -744782.383       6177628.468
10 0 59708  28260.000000  0       2704495.573       -789065.584       6364310.262
10 0 59708  28320.000000  0       2276735.026       -826329.482       6523956.841
10 0 59708  28380.000000  0       1839077.857       -856321.708       6655886.927
10 0 59708  28440.000000  0       1393433.684       -878837.015       6759536.553
10 0 59708  28500.000000  0        941747.710       -893718.482       6834461.387
10 0 59708  28560.000000  0        485992.200       -900858.432       6880338.555
10 0 59708  28620.000000  0         28157.831       -900199.118       6896968.037
10 0 59708  28680.000000  0       -429755.033       -891733.113       6884273.510
10 0 59708  28740.000000  0       -885745.083       -875503.422       6842302.770
99
